KUIPER-00160            
1 67765U 26030B   26065.57502815  .00036947  00000+0  10619-2 0  9991
2 67765  51.8809 234.1916 0005071  47.1603 312.9809 15.35450898  4615
KUIPER-00177            
1 67766U 26030C   26065.56210809  .00035925  00000+0  10025-2 0  9996
2 67766  51.8825 234.1143 0001180  17.5084 342.5943 15.36397121  4615
KUIPER-00178            
1 67767U 26030D   26065.57677508  .00034922  00000+0  10058-2 0  9993
2 67767  51.8837 234.2091 0006261  37.3972 322.7448 15.35405855  4616
KUIPER-00180            
1 67768U 26030E   26065.60988049 -.00024949  00000+0 -78451-3 0  9995
2 67768  51.8810 234.4139 0014382  59.5894 300.6510 15.31966632  4611
KUIPER-00197            
1 67769U 26030F   26065.56434836  .00037964  00000+0  10628-2 0  9991
2 67769  51.8829 234.1287 0001311  53.6658 306.4450 15.36271347  4618
KUIPER-00198            
1 67770U 26030G   26065.56948563  .00044506  00000+0  12573-2 0  9991
2 67770  51.8805 234.1574 0003401  37.9942 322.1283 15.35910067  4613
KUIPER-00199            
1 67771U 26030H   26065.59253654  .00025968  00000+0  77940-3 0  9996
2 67771  51.8817 234.3030 0010456  52.1040 308.0890 15.34229607  4611
KUIPER-00200            
1 67772U 26030J   26065.62056305  .00047924  00000+0  13089-2 0  9994
2 67772  51.8804 233.7538 0001234 227.7643 132.3239 15.36933113  4629
KUIPER-00203            
1 67773U 26030K   26065.58334491 -.01379197  00000+0 -67828-1 0  9997
2 67773  51.8833 234.6906 0011521  53.3376  61.7812 15.20795351  3171
KUIPER-00205            
1 67774U 26030L   26065.56510630  .00028213  00000+0  79398-3 0  9991
2 67774  51.8807 234.1289 0002963  12.6699 347.4361 15.36252003  4610
KUIPER-00208            
1 67775U 26030M   26065.60691165  .00037379  00000+0  11819-2 0  9996
2 67775  51.8839 234.4047 0014768  52.0261 308.2055 15.32333358  4614
KUIPER-00209            
1 67776U 26030N   26065.58334491  .00006052  00000+0  21543-3 0  9990
2 67776  51.8825 234.5900 0012892  59.5129 133.3225 15.30266763  4002
KUIPER-00213            
1 67777U 26030P   26065.60738707  .00024749  00000+0  78073-3 0  9995
2 67777  51.8811 234.3976 0014917  56.0272 304.2128 15.32620568  4617
KUIPER-00214            
1 67778U 26030Q   26065.55844831  .00027886  00000+0  77628-3 0  9996
2 67778  51.8840 234.0923 0000540 209.3078 150.7878 15.36599941  4613
KUIPER-00215            
1 67779U 26030R   26065.59085706  .00037892  00000+0  11266-2 0  9992
2 67779  51.8846 234.3020 0010325  50.5384 309.6514 15.34333984  4612
KUIPER-00218            
1 67780U 26030S   26065.58073462  .00025501  00000+0  74686-3 0  9999
2 67780  51.8839 234.2341 0006686  42.4290 317.7212 15.35042981  4612
