[{"OBJECT_NAME":"KUIPER-00160","OBJECT_ID":"2026-030B","EPOCH":"2026-03-06T13:48:02.432160","MEAN_MOTION":15.35450898,"ECCENTRICITY":0.00050719,"INCLINATION":51.8809,"RA_OF_ASC_NODE":234.1916,"ARG_OF_PERICENTER":47.1603,"MEAN_ANOMALY":312.9809,"EPHEMERIS_TYPE":0,"CLASSIFICATION_TYPE":"U","NORAD_CAT_ID":67765,"ELEMENT_SET_NO":999,"REV_AT_EPOCH":461,"BSTAR":0.001061892,"MEAN_MOTION_DOT":0.00036947,"MEAN_MOTION_DDOT":0},{"OBJECT_NAME":"KUIPER-00177","OBJECT_ID":"2026-030C","EPOCH":"2026-03-06T13:29:26.138976","MEAN_MOTION":15.36397121,"ECCENTRICITY":0.00011803,"INCLINATION":51.8825,"RA_OF_ASC_NODE":234.1143,"ARG_OF_PERICENTER":17.5084,"MEAN_ANOMALY":342.5943,"EPHEMERIS_TYPE":0,"CLASSIFICATION_TYPE":"U","NORAD_CAT_ID":67766,"ELEMENT_SET_NO":999,"REV_AT_EPOCH":461,"BSTAR":0.001002465,"MEAN_MOTION_DOT":0.00035925,"MEAN_MOTION_DDOT":0},{"OBJECT_NAME":"KUIPER-00178","OBJECT_ID":"2026-030D","EPOCH":"2026-03-06T13:50:33.366912","MEAN_MOTION":15.35405855,"ECCENTRICITY":0.00062613,"INCLINATION":51.8837,"RA_OF_ASC_NODE":234.2091,"ARG_OF_PERICENTER":37.3972,"MEAN_ANOMALY":322.7448,"EPHEMERIS_TYPE":0,"CLASSIFICATION_TYPE":"U","NORAD_CAT_ID":67767,"ELEMENT_SET_NO":999,"REV_AT_EPOCH":461,"BSTAR":0.0010057976,"MEAN_MOTION_DOT":0.00034922,"MEAN_MOTION_DDOT":0},{"OBJECT_NAME":"KUIPER-00180","OBJECT_ID":"2026-030E","EPOCH":"2026-03-06T14:38:13.674336","MEAN_MOTION":15.31966632,"ECCENTRICITY":0.00143827,"INCLINATION":51.881,"RA_OF_ASC_NODE":234.4139,"ARG_OF_PERICENTER":59.5894,"MEAN_ANOMALY":300.651,"EPHEMERIS_TYPE":0,"CLASSIFICATION_TYPE":"U","NORAD_CAT_ID":67768,"ELEMENT_SET_NO":999,"REV_AT_EPOCH":461,"BSTAR":-0.00078451235,"MEAN_MOTION_DOT":-0.00024949,"MEAN_MOTION_DDOT":0},{"OBJECT_NAME":"KUIPER-00197","OBJECT_ID":"2026-030F","EPOCH":"2026-03-06T13:32:39.698304","MEAN_MOTION":15.36271347,"ECCENTRICITY":0.00013111,"INCLINATION":51.8829,"RA_OF_ASC_NODE":234.1287,"ARG_OF_PERICENTER":53.6658,"MEAN_ANOMALY":306.445,"EPHEMERIS_TYPE":0,"CLASSIFICATION_TYPE":"U","NORAD_CAT_ID":67769,"ELEMENT_SET_NO":999,"REV_AT_EPOCH":461,"BSTAR":0.0010627576,"MEAN_MOTION_DOT":0.00037964,"MEAN_MOTION_DDOT":0},{"OBJECT_NAME":"KUIPER-00198","OBJECT_ID":"2026-030G","EPOCH":"2026-03-06T13:40:03.558432","MEAN_MOTION":15.35910067,"ECCENTRICITY":0.00034013,"INCLINATION":51.8805,"RA_OF_ASC_NODE":234.1574,"ARG_OF_PERICENTER":37.9942,"MEAN_ANOMALY":322.1283,"EPHEMERIS_TYPE":0,"CLASSIFICATION_TYPE":"U","NORAD_CAT_ID":67770,"ELEMENT_SET_NO":999,"REV_AT_EPOCH":461,"BSTAR":0.00125729,"MEAN_MOTION_DOT":0.00044506,"MEAN_MOTION_DDOT":0},{"OBJECT_NAME":"KUIPER-00199","OBJECT_ID":"2026-030H","EPOCH":"2026-03-06T14:13:15.157056","MEAN_MOTION":15.34229607,"ECCENTRICITY":0.00104567,"INCLINATION":51.8817,"RA_OF_ASC_NODE":234.303,"ARG_OF_PERICENTER":52.104,"MEAN_ANOMALY":308.089,"EPHEMERIS_TYPE":0,"CLASSIFICATION_TYPE":"U","NORAD_CAT_ID":67771,"ELEMENT_SET_NO":999,"REV_AT_EPOCH":461,"BSTAR":0.00077940326,"MEAN_MOTION_DOT":0.00025968,"MEAN_MOTION_DDOT":0},{"OBJECT_NAME":"KUIPER-00200","OBJECT_ID":"2026-030J","EPOCH":"2026-03-06T14:53:36.647520","MEAN_MOTION":15.36933113,"ECCENTRICITY":0.00012342,"INCLINATION":51.8804,"RA_OF_ASC_NODE":233.7538,"ARG_OF_PERICENTER":227.7643,"MEAN_ANOMALY":132.3239,"EPHEMERIS_TYPE":0,"CLASSIFICATION_TYPE":"U","NORAD_CAT_ID":67772,"ELEMENT_SET_NO":999,"REV_AT_EPOCH":462,"BSTAR":0.0013088519,"MEAN_MOTION_DOT":0.00047924,"MEAN_MOTION_DDOT":0},{"OBJECT_NAME":"KUIPER-00203","OBJECT_ID":"2026-030K","EPOCH":"2026-03-06T14:00:01.000224","MEAN_MOTION":15.20795351,"ECCENTRICITY":0.00115219,"INCLINATION":51.8833,"RA_OF_ASC_NODE":234.6906,"ARG_OF_PERICENTER":53.3376,"MEAN_ANOMALY":61.7812,"EPHEMERIS_TYPE":0,"CLASSIFICATION_TYPE":"U","NORAD_CAT_ID":67773,"ELEMENT_SET_NO":999,"REV_AT_EPOCH":317,"BSTAR":-0.067828027,"MEAN_MOTION_DOT":-0.01379197,"MEAN_MOTION_DDOT":0},{"OBJECT_NAME":"KUIPER-00205","OBJECT_ID":"2026-030L","EPOCH":"2026-03-06T13:33:45.184320","MEAN_MOTION":15.36252003,"ECCENTRICITY":0.00029631,"INCLINATION":51.8807,"RA_OF_ASC_NODE":234.1289,"ARG_OF_PERICENTER":12.6699,"MEAN_ANOMALY":347.4361,"EPHEMERIS_TYPE":0,"CLASSIFICATION_TYPE":"U","NORAD_CAT_ID":67774,"ELEMENT_SET_NO":999,"REV_AT_EPOCH":461,"BSTAR":0.00079398058,"MEAN_MOTION_DOT":0.00028213,"MEAN_MOTION_DDOT":0},{"OBJECT_NAME":"KUIPER-00208","OBJECT_ID":"2026-030M","EPOCH":"2026-03-06T14:33:57.166560","MEAN_MOTION":15.32333358,"ECCENTRICITY":0.00147681,"INCLINATION":51.8839,"RA_OF_ASC_NODE":234.4047,"ARG_OF_PERICENTER":52.0261,"MEAN_ANOMALY":308.2055,"EPHEMERIS_TYPE":0,"CLASSIFICATION_TYPE":"U","NORAD_CAT_ID":67775,"ELEMENT_SET_NO":999,"REV_AT_EPOCH":461,"BSTAR":0.0011818713,"MEAN_MOTION_DOT":0.00037379,"MEAN_MOTION_DDOT":0},{"OBJECT_NAME":"KUIPER-00209","OBJECT_ID":"2026-030N","EPOCH":"2026-03-06T14:00:01.000224","MEAN_MOTION":15.30266763,"ECCENTRICITY":0.00128922,"INCLINATION":51.8825,"RA_OF_ASC_NODE":234.59,"ARG_OF_PERICENTER":59.5129,"MEAN_ANOMALY":133.3225,"EPHEMERIS_TYPE":0,"CLASSIFICATION_TYPE":"U","NORAD_CAT_ID":67776,"ELEMENT_SET_NO":999,"REV_AT_EPOCH":400,"BSTAR":0.00021542607,"MEAN_MOTION_DOT":6.052e-5,"MEAN_MOTION_DDOT":0},{"OBJECT_NAME":"KUIPER-00213","OBJECT_ID":"2026-030P","EPOCH":"2026-03-06T14:34:38.242848","MEAN_MOTION":15.32620568,"ECCENTRICITY":0.0014917,"INCLINATION":51.8811,"RA_OF_ASC_NODE":234.3976,"ARG_OF_PERICENTER":56.0272,"MEAN_ANOMALY":304.2128,"EPHEMERIS_TYPE":0,"CLASSIFICATION_TYPE":"U","NORAD_CAT_ID":67777,"ELEMENT_SET_NO":999,"REV_AT_EPOCH":461,"BSTAR":0.00078072952,"MEAN_MOTION_DOT":0.00024749,"MEAN_MOTION_DDOT":0},{"OBJECT_NAME":"KUIPER-00214","OBJECT_ID":"2026-030Q","EPOCH":"2026-03-06T13:24:09.933984","MEAN_MOTION":15.36599941,"ECCENTRICITY":5.4e-5,"INCLINATION":51.884,"RA_OF_ASC_NODE":234.0923,"ARG_OF_PERICENTER":209.3078,"MEAN_ANOMALY":150.7878,"EPHEMERIS_TYPE":0,"CLASSIFICATION_TYPE":"U","NORAD_CAT_ID":67778,"ELEMENT_SET_NO":999,"REV_AT_EPOCH":461,"BSTAR":0.0007762805,"MEAN_MOTION_DOT":0.00027886,"MEAN_MOTION_DDOT":0},{"OBJECT_NAME":"KUIPER-00215","OBJECT_ID":"2026-030R","EPOCH":"2026-03-06T14:10:50.049984","MEAN_MOTION":15.34333984,"ECCENTRICITY":0.00103252,"INCLINATION":51.8846,"RA_OF_ASC_NODE":234.302,"ARG_OF_PERICENTER":50.5384,"MEAN_ANOMALY":309.6514,"EPHEMERIS_TYPE":0,"CLASSIFICATION_TYPE":"U","NORAD_CAT_ID":67779,"ELEMENT_SET_NO":999,"REV_AT_EPOCH":461,"BSTAR":0.0011266182,"MEAN_MOTION_DOT":0.00037892,"MEAN_MOTION_DDOT":0},{"OBJECT_NAME":"KUIPER-00218","OBJECT_ID":"2026-030S","EPOCH":"2026-03-06T13:56:15.471168","MEAN_MOTION":15.35042981,"ECCENTRICITY":0.00066865,"INCLINATION":51.8839,"RA_OF_ASC_NODE":234.2341,"ARG_OF_PERICENTER":42.429,"MEAN_ANOMALY":317.7212,"EPHEMERIS_TYPE":0,"CLASSIFICATION_TYPE":"U","NORAD_CAT_ID":67780,"ELEMENT_SET_NO":999,"REV_AT_EPOCH":461,"BSTAR":0.00074685729,"MEAN_MOTION_DOT":0.00025501,"MEAN_MOTION_DDOT":0}]
